QIANFAN-81              
1 63167U 25046J   26204.79045970  .00000120  00000+0  16691-3 0  9993
2 63167  88.9721 296.7331 0015030 188.1159 171.9751 13.51026302 77607
QIANFAN-82              
1 63168U 25046K   26204.82344299  .00000123  00000+0  17111-3 0  9995
2 63168  88.9721 296.7738 0012625 193.2555 166.8266 13.51020775 77593
QIANFAN-83              
1 63169U 25046L   26204.81024992  .00000151  00000+0  17942-3 0  9993
2 63169  88.9722 296.1122 0015032 168.0213 192.1305 13.62053685 77967
QIANFAN-84              
1 63170U 25046M   26204.77824794  .00000120  00000+0  16621-3 0  9997
2 63170  88.9721 296.9112 0015809 191.9117 168.1663 13.51046718 77513
QIANFAN-85              
1 63171U 25046N   26204.77406948  .00000125  00000+0  17512-3 0  9990
2 63171  88.9721 296.7816 0013172 192.6304 167.4519 13.51018464 77586
QIANFAN-86              
1 63172U 25046P   26204.78227550  .00000127  00000+0  17816-3 0  9991
2 63172  88.9723 296.6482 0010868 194.7889 165.2946 13.51026059 77665
QIANFAN-87              
1 63173U 25046Q   26204.82769812  .00000114  00000+0  15783-3 0  9996
2 63173  88.9719 296.7468 0011617 190.4278 169.6634 13.51011473 77604
QIANFAN-88              
1 63174U 25046R   26204.84410387  .00000133  00000+0  18670-3 0  9998
2 63174  88.9721 296.7052 0011693 199.1932 160.8780 13.51019204 77632
QIANFAN-89              
1 63175U 25046S   26204.80692542  .00000120  00000+0  16716-3 0  9995
2 63175  88.9721 296.8979 0016624 192.7030 167.3704 13.51026374 77521
QIANFAN-90              
1 63176U 25046T   26204.83576934  .00000136  00000+0  19135-3 0  9990
2 63176  88.9721 296.8679 0013640 189.3896 170.7002 13.51018827 77541
QIANFAN-91              
1 66033U 25233A   26204.49793134  .00000053  00000+0  64099-4 0  9996
2 66033  88.9980  39.5146 0002158  95.0425 265.0972 13.51015352 38087
QIANFAN-92              
1 66034U 25233B   26204.50613178  .00000063  00000+0  78345-4 0  9998
2 66034  88.9963  39.4795 0001976  89.6665 270.4713 13.51013911 38082
QIANFAN-93              
1 66035U 25233C   26204.29214603  .00000039  00000+0  41557-4 0  9993
2 66035  88.9991  39.5629 0002082  93.9797 266.1593 13.51017110 38054
QIANFAN-94              
1 66036U 25233D   26204.50202389  .00000065  00000+0  81326-4 0  9993
2 66036  88.9987  39.4437 0002120  89.6653 270.4741 13.51016220 38135
QIANFAN-95              
1 66037U 25233E   26204.51026031  .00000050  00000+0  59520-4 0  9998
2 66037  88.9985  38.9854 0002267  93.3205 266.8205 13.51017167 38380
QIANFAN-96              
1 66038U 25233F   26204.09058847  .00000054  00000+0  64331-4 0  9992
2 66038  88.9983  39.5706 0002183  96.0639 264.0761 13.51015902 38023
