{"fetched_at":"2026-07-24T07:06:11.280Z","source":"https://celestrak.org/NORAD/elements/gp.php?GROUP=qianfan&FORMAT=JSON","constellation":"qianfan","records":[{"OBJECT_NAME":"QIANFAN-81","OBJECT_ID":"2025-046J","EPOCH":"2026-07-23T18:58:15.718080","CLASSIFICATION_TYPE":"U","MEAN_MOTION":13.51026302,"ECCENTRICITY":0.001503,"INCLINATION":88.9721,"RA_OF_ASC_NODE":296.7331,"ARG_OF_PERICENTER":188.1159,"MEAN_ANOMALY":171.9751,"EPHEMERIS_TYPE":0,"NORAD_CAT_ID":63167,"ELEMENT_SET_NO":999,"REV_AT_EPOCH":7760,"BSTAR":0.00016691,"MEAN_MOTION_DOT":0.0000012,"MEAN_MOTION_DDOT":0},{"OBJECT_NAME":"QIANFAN-82","OBJECT_ID":"2025-046K","EPOCH":"2026-07-23T19:45:45.474336","CLASSIFICATION_TYPE":"U","MEAN_MOTION":13.51020775,"ECCENTRICITY":0.0012625,"INCLINATION":88.9721,"RA_OF_ASC_NODE":296.7738,"ARG_OF_PERICENTER":193.2555,"MEAN_ANOMALY":166.8266,"EPHEMERIS_TYPE":0,"NORAD_CAT_ID":63168,"ELEMENT_SET_NO":999,"REV_AT_EPOCH":7759,"BSTAR":0.00017111,"MEAN_MOTION_DOT":0.00000123,"MEAN_MOTION_DDOT":0},{"OBJECT_NAME":"QIANFAN-83","OBJECT_ID":"2025-046L","EPOCH":"2026-07-23T19:26:45.593088","CLASSIFICATION_TYPE":"U","MEAN_MOTION":13.62053685,"ECCENTRICITY":0.0015032,"INCLINATION":88.9722,"RA_OF_ASC_NODE":296.1122,"ARG_OF_PERICENTER":168.0213,"MEAN_ANOMALY":192.1305,"EPHEMERIS_TYPE":0,"NORAD_CAT_ID":63169,"ELEMENT_SET_NO":999,"REV_AT_EPOCH":7796,"BSTAR":0.00017942,"MEAN_MOTION_DOT":0.00000151,"MEAN_MOTION_DDOT":0},{"OBJECT_NAME":"QIANFAN-84","OBJECT_ID":"2025-046M","EPOCH":"2026-07-23T18:40:40.622016","CLASSIFICATION_TYPE":"U","MEAN_MOTION":13.51046718,"ECCENTRICITY":0.0015809,"INCLINATION":88.9721,"RA_OF_ASC_NODE":296.9112,"ARG_OF_PERICENTER":191.9117,"MEAN_ANOMALY":168.1663,"EPHEMERIS_TYPE":0,"NORAD_CAT_ID":63170,"ELEMENT_SET_NO":999,"REV_AT_EPOCH":7751,"BSTAR":0.00016621,"MEAN_MOTION_DOT":0.0000012,"MEAN_MOTION_DDOT":0},{"OBJECT_NAME":"QIANFAN-85","OBJECT_ID":"2025-046N","EPOCH":"2026-07-23T18:34:39.603072","CLASSIFICATION_TYPE":"U","MEAN_MOTION":13.51018464,"ECCENTRICITY":0.0013172,"INCLINATION":88.9721,"RA_OF_ASC_NODE":296.7816,"ARG_OF_PERICENTER":192.6304,"MEAN_ANOMALY":167.4519,"EPHEMERIS_TYPE":0,"NORAD_CAT_ID":63171,"ELEMENT_SET_NO":999,"REV_AT_EPOCH":7758,"BSTAR":0.00017512,"MEAN_MOTION_DOT":0.00000125,"MEAN_MOTION_DDOT":0},{"OBJECT_NAME":"QIANFAN-86","OBJECT_ID":"2025-046P","EPOCH":"2026-07-23T18:46:28.603200","CLASSIFICATION_TYPE":"U","MEAN_MOTION":13.51026059,"ECCENTRICITY":0.0010868,"INCLINATION":88.9723,"RA_OF_ASC_NODE":296.6482,"ARG_OF_PERICENTER":194.7889,"MEAN_ANOMALY":165.2946,"EPHEMERIS_TYPE":0,"NORAD_CAT_ID":63172,"ELEMENT_SET_NO":999,"REV_AT_EPOCH":7766,"BSTAR":0.00017816,"MEAN_MOTION_DOT":0.00000127,"MEAN_MOTION_DDOT":0},{"OBJECT_NAME":"QIANFAN-87","OBJECT_ID":"2025-046Q","EPOCH":"2026-07-23T19:51:53.117568","CLASSIFICATION_TYPE":"U","MEAN_MOTION":13.51011473,"ECCENTRICITY":0.0011617,"INCLINATION":88.9719,"RA_OF_ASC_NODE":296.7468,"ARG_OF_PERICENTER":190.4278,"MEAN_ANOMALY":169.6634,"EPHEMERIS_TYPE":0,"NORAD_CAT_ID":63173,"ELEMENT_SET_NO":999,"REV_AT_EPOCH":7760,"BSTAR":0.00015783,"MEAN_MOTION_DOT":0.00000114,"MEAN_MOTION_DDOT":0},{"OBJECT_NAME":"QIANFAN-88","OBJECT_ID":"2025-046R","EPOCH":"2026-07-23T20:15:30.574368","CLASSIFICATION_TYPE":"U","MEAN_MOTION":13.51019204,"ECCENTRICITY":0.0011693,"INCLINATION":88.9721,"RA_OF_ASC_NODE":296.7052,"ARG_OF_PERICENTER":199.1932,"MEAN_ANOMALY":160.878,"EPHEMERIS_TYPE":0,"NORAD_CAT_ID":63174,"ELEMENT_SET_NO":999,"REV_AT_EPOCH":7763,"BSTAR":0.0001867,"MEAN_MOTION_DOT":0.00000133,"MEAN_MOTION_DDOT":0},{"OBJECT_NAME":"QIANFAN-89","OBJECT_ID":"2025-046S","EPOCH":"2026-07-23T19:21:58.356288","CLASSIFICATION_TYPE":"U","MEAN_MOTION":13.51026374,"ECCENTRICITY":0.0016624,"INCLINATION":88.9721,"RA_OF_ASC_NODE":296.8979,"ARG_OF_PERICENTER":192.703,"MEAN_ANOMALY":167.3704,"EPHEMERIS_TYPE":0,"NORAD_CAT_ID":63175,"ELEMENT_SET_NO":999,"REV_AT_EPOCH":7752,"BSTAR":0.00016716,"MEAN_MOTION_DOT":0.0000012,"MEAN_MOTION_DDOT":0},{"OBJECT_NAME":"QIANFAN-90","OBJECT_ID":"2025-046T","EPOCH":"2026-07-23T20:03:30.470976","CLASSIFICATION_TYPE":"U","MEAN_MOTION":13.51018827,"ECCENTRICITY":0.001364,"INCLINATION":88.9721,"RA_OF_ASC_NODE":296.8679,"ARG_OF_PERICENTER":189.3896,"MEAN_ANOMALY":170.7002,"EPHEMERIS_TYPE":0,"NORAD_CAT_ID":63176,"ELEMENT_SET_NO":999,"REV_AT_EPOCH":7754,"BSTAR":0.00019135,"MEAN_MOTION_DOT":0.00000136,"MEAN_MOTION_DDOT":0},{"OBJECT_NAME":"QIANFAN-91","OBJECT_ID":"2025-233A","EPOCH":"2026-07-23T11:57:01.267776","CLASSIFICATION_TYPE":"U","MEAN_MOTION":13.51015352,"ECCENTRICITY":0.0002158,"INCLINATION":88.998,"RA_OF_ASC_NODE":39.5146,"ARG_OF_PERICENTER":95.0425,"MEAN_ANOMALY":265.0972,"EPHEMERIS_TYPE":0,"NORAD_CAT_ID":66033,"ELEMENT_SET_NO":999,"REV_AT_EPOCH":3808,"BSTAR":0.000064099,"MEAN_MOTION_DOT":5.3e-7,"MEAN_MOTION_DDOT":0},{"OBJECT_NAME":"QIANFAN-92","OBJECT_ID":"2025-233B","EPOCH":"2026-07-23T12:08:49.785792","CLASSIFICATION_TYPE":"U","MEAN_MOTION":13.51013911,"ECCENTRICITY":0.0001976,"INCLINATION":88.9963,"RA_OF_ASC_NODE":39.4795,"ARG_OF_PERICENTER":89.6665,"MEAN_ANOMALY":270.4713,"EPHEMERIS_TYPE":0,"NORAD_CAT_ID":66034,"ELEMENT_SET_NO":999,"REV_AT_EPOCH":3808,"BSTAR":0.000078345,"MEAN_MOTION_DOT":6.3e-7,"MEAN_MOTION_DDOT":0},{"OBJECT_NAME":"QIANFAN-93","OBJECT_ID":"2025-233C","EPOCH":"2026-07-23T07:00:41.416992","CLASSIFICATION_TYPE":"U","MEAN_MOTION":13.5101711,"ECCENTRICITY":0.0002082,"INCLINATION":88.9991,"RA_OF_ASC_NODE":39.5629,"ARG_OF_PERICENTER":93.9797,"MEAN_ANOMALY":266.1593,"EPHEMERIS_TYPE":0,"NORAD_CAT_ID":66035,"ELEMENT_SET_NO":999,"REV_AT_EPOCH":3805,"BSTAR":0.000041557,"MEAN_MOTION_DOT":3.9e-7,"MEAN_MOTION_DDOT":0},{"OBJECT_NAME":"QIANFAN-94","OBJECT_ID":"2025-233D","EPOCH":"2026-07-23T12:02:54.864096","CLASSIFICATION_TYPE":"U","MEAN_MOTION":13.5101622,"ECCENTRICITY":0.000212,"INCLINATION":88.9987,"RA_OF_ASC_NODE":39.4437,"ARG_OF_PERICENTER":89.6653,"MEAN_ANOMALY":270.4741,"EPHEMERIS_TYPE":0,"NORAD_CAT_ID":66036,"ELEMENT_SET_NO":999,"REV_AT_EPOCH":3813,"BSTAR":0.000081326,"MEAN_MOTION_DOT":6.5e-7,"MEAN_MOTION_DDOT":0},{"OBJECT_NAME":"QIANFAN-95","OBJECT_ID":"2025-233E","EPOCH":"2026-07-23T12:14:46.490784","CLASSIFICATION_TYPE":"U","MEAN_MOTION":13.51017167,"ECCENTRICITY":0.0002267,"INCLINATION":88.9985,"RA_OF_ASC_NODE":38.9854,"ARG_OF_PERICENTER":93.3205,"MEAN_ANOMALY":266.8205,"EPHEMERIS_TYPE":0,"NORAD_CAT_ID":66037,"ELEMENT_SET_NO":999,"REV_AT_EPOCH":3838,"BSTAR":0.00005952,"MEAN_MOTION_DOT":5e-7,"MEAN_MOTION_DDOT":0},{"OBJECT_NAME":"QIANFAN-96","OBJECT_ID":"2025-233F","EPOCH":"2026-07-23T02:10:26.843808","CLASSIFICATION_TYPE":"U","MEAN_MOTION":13.51015902,"ECCENTRICITY":0.00021832,"INCLINATION":88.9983,"RA_OF_ASC_NODE":39.5706,"ARG_OF_PERICENTER":96.0639,"MEAN_ANOMALY":264.0761,"EPHEMERIS_TYPE":0,"NORAD_CAT_ID":66038,"ELEMENT_SET_NO":999,"REV_AT_EPOCH":3802,"BSTAR":0.000064331453,"MEAN_MOTION_DOT":5.4e-7,"MEAN_MOTION_DDOT":0}]}
